HULIANWANG DIGUI-65     
1 65171U 25174H   26088.17006093  .00000070  00000+0  12851-3 0  9995
2 65171  86.4818 278.9100 0001546 101.2232 258.9075 13.24414231 30195
HULIANWANG DIGUI-66     
1 65172U 25174J   26088.16253287  .00000139  00000+0  29081-3 0  9993
2 65172  86.4853 278.9868 0001636 100.0584 260.0734 13.24414796 30195
HULIANWANG DIGUI-67     
1 65173U 25174K   26088.17768235  .00000069  00000+0  12737-3 0  9991
2 65173  86.4865 279.0180 0001576  99.7900 260.3412 13.24414268 30164
HULIANWANG DIGUI-68     
1 65228U 25178A   26088.20021995  .00000082  00000+0  15665-3 0  9993
2 65228  86.4987  40.5070 0001940  71.1715 288.9629 13.24409124 29723
HULIANWANG DIGUI-69     
1 65229U 25178B   26088.19301260  .00000092  00000+0  17975-3 0  9995
2 65229  86.5007  40.5490 0001892  74.0478 286.0864 13.24411904 29727
HULIANWANG DIGUI-70     
1 65230U 25178C   26088.18540740  .00000071  00000+0  13202-3 0  9990
2 65230  86.4946  40.4064 0001926  70.4971 289.6371 13.24411346 29724
HULIANWANG DIGUI-71     
1 65231U 25178D   26088.17782179  .00000058  00000+0  10100-3 0  9993
2 65231  86.5004  40.5365 0001919  71.2891 288.8451 13.24411076 29728
HULIANWANG DIGUI-72     
1 65232U 25178E   26088.17022483  .00000063  00000+0  11245-3 0  9996
2 65232  86.4988  40.4933 0001945  71.8790 288.2556 13.24410556 29724
HULIANWANG DIGUI-73     
1 65305U 25187A   26088.14616894 -.00000084  00000+0  85723-4 0  9996
2 65305  50.0037 132.9402 0000884 229.2575 130.8220 13.29322811 29053
HULIANWANG DIGUI-74     
1 65306U 25187B   26088.20461644 -.00000091  00000+0  72121-4 0  9991
2 65306  50.0079 132.6572 0000897 229.6573 130.4221 13.29323673 29066
HULIANWANG DIGUI-75     
1 65307U 25187C   26088.18799031 -.00000085  00000+0  83400-4 0  9998
2 65307  50.0071 132.5576 0000878 229.6740 130.4056 13.29322379 29065
HULIANWANG DIGUI-76     
1 65308U 25187D   26088.17147123 -.00000085  00000+0  83526-4 0  9996
2 65308  49.9995 132.9970 0000885 225.8865 134.1934 13.29323942 29056
HULIANWANG DIGUI-77     
1 65309U 25187E   26088.16296945 -.00000071  00000+0  11465-3 0  9990
2 65309  50.0030 133.0131 0001081 226.8112 133.2670 13.29322969 29051
HULIANWANG DIGUI-78     
1 65310U 25187F   26088.19639146 -.00000089  00000+0  76066-4 0  9997
2 65310  50.0095 132.6433 0000878 229.7568 130.3227 13.29322122 29062
HULIANWANG DIGUI-79     
1 65311U 25187G   26088.17949074 -.00000074  00000+0  10698-3 0  9992
2 65311  50.0025 133.0900 0000872 230.5505 129.5290 13.29324055 29051
HULIANWANG DIGUI-80     
1 65312U 25187H   26088.15458580 -.00000081  00000+0  93528-4 0  9990
2 65312  50.0016 132.9453 0001059 225.7075 134.3710 13.29322740 29059
