[{"OBJECT_NAME":"HULIANWANG DIGUI-65","OBJECT_ID":"2025-174H","EPOCH":"2026-03-29T04:04:53.264352","MEAN_MOTION":13.24414231,"ECCENTRICITY":0.0001546,"INCLINATION":86.4818,"RA_OF_ASC_NODE":278.91,"ARG_OF_PERICENTER":101.2232,"MEAN_ANOMALY":258.9075,"EPHEMERIS_TYPE":0,"CLASSIFICATION_TYPE":"U","NORAD_CAT_ID":65171,"ELEMENT_SET_NO":999,"REV_AT_EPOCH":3019,"BSTAR":0.00012851,"MEAN_MOTION_DOT":7.0e-7,"MEAN_MOTION_DDOT":0},{"OBJECT_NAME":"HULIANWANG DIGUI-66","OBJECT_ID":"2025-174J","EPOCH":"2026-03-29T03:54:02.839968","MEAN_MOTION":13.24414796,"ECCENTRICITY":0.0001636,"INCLINATION":86.4853,"RA_OF_ASC_NODE":278.9868,"ARG_OF_PERICENTER":100.0584,"MEAN_ANOMALY":260.0734,"EPHEMERIS_TYPE":0,"CLASSIFICATION_TYPE":"U","NORAD_CAT_ID":65172,"ELEMENT_SET_NO":999,"REV_AT_EPOCH":3019,"BSTAR":0.00029081,"MEAN_MOTION_DOT":1.39e-6,"MEAN_MOTION_DDOT":0},{"OBJECT_NAME":"HULIANWANG DIGUI-67","OBJECT_ID":"2025-174K","EPOCH":"2026-03-29T04:15:51.755040","MEAN_MOTION":13.24414268,"ECCENTRICITY":0.0001576,"INCLINATION":86.4865,"RA_OF_ASC_NODE":279.018,"ARG_OF_PERICENTER":99.79,"MEAN_ANOMALY":260.3412,"EPHEMERIS_TYPE":0,"CLASSIFICATION_TYPE":"U","NORAD_CAT_ID":65173,"ELEMENT_SET_NO":999,"REV_AT_EPOCH":3016,"BSTAR":0.00012737,"MEAN_MOTION_DOT":6.9e-7,"MEAN_MOTION_DDOT":0},{"OBJECT_NAME":"HULIANWANG DIGUI-68","OBJECT_ID":"2025-178A","EPOCH":"2026-03-29T04:48:19.003680","MEAN_MOTION":13.24409124,"ECCENTRICITY":0.000194,"INCLINATION":86.4987,"RA_OF_ASC_NODE":40.507,"ARG_OF_PERICENTER":71.1715,"MEAN_ANOMALY":288.9629,"EPHEMERIS_TYPE":0,"CLASSIFICATION_TYPE":"U","NORAD_CAT_ID":65228,"ELEMENT_SET_NO":999,"REV_AT_EPOCH":2972,"BSTAR":0.00015665,"MEAN_MOTION_DOT":8.2e-7,"MEAN_MOTION_DDOT":0},{"OBJECT_NAME":"HULIANWANG DIGUI-69","OBJECT_ID":"2025-178B","EPOCH":"2026-03-29T04:37:56.288640","MEAN_MOTION":13.24411904,"ECCENTRICITY":0.0001892,"INCLINATION":86.5007,"RA_OF_ASC_NODE":40.549,"ARG_OF_PERICENTER":74.0478,"MEAN_ANOMALY":286.0864,"EPHEMERIS_TYPE":0,"CLASSIFICATION_TYPE":"U","NORAD_CAT_ID":65229,"ELEMENT_SET_NO":999,"REV_AT_EPOCH":2972,"BSTAR":0.00017975,"MEAN_MOTION_DOT":9.2e-7,"MEAN_MOTION_DDOT":0},{"OBJECT_NAME":"HULIANWANG DIGUI-70","OBJECT_ID":"2025-178C","EPOCH":"2026-03-29T04:26:59.199360","MEAN_MOTION":13.24411346,"ECCENTRICITY":0.0001926,"INCLINATION":86.4946,"RA_OF_ASC_NODE":40.4064,"ARG_OF_PERICENTER":70.4971,"MEAN_ANOMALY":289.6371,"EPHEMERIS_TYPE":0,"CLASSIFICATION_TYPE":"U","NORAD_CAT_ID":65230,"ELEMENT_SET_NO":999,"REV_AT_EPOCH":2972,"BSTAR":0.00013202,"MEAN_MOTION_DOT":7.1e-7,"MEAN_MOTION_DDOT":0},{"OBJECT_NAME":"HULIANWANG DIGUI-71","OBJECT_ID":"2025-178D","EPOCH":"2026-03-29T04:16:03.802656","MEAN_MOTION":13.24411076,"ECCENTRICITY":0.0001919,"INCLINATION":86.5004,"RA_OF_ASC_NODE":40.5365,"ARG_OF_PERICENTER":71.2891,"MEAN_ANOMALY":288.8451,"EPHEMERIS_TYPE":0,"CLASSIFICATION_TYPE":"U","NORAD_CAT_ID":65231,"ELEMENT_SET_NO":999,"REV_AT_EPOCH":2972,"BSTAR":0.000101,"MEAN_MOTION_DOT":5.8e-7,"MEAN_MOTION_DDOT":0},{"OBJECT_NAME":"HULIANWANG DIGUI-72","OBJECT_ID":"2025-178E","EPOCH":"2026-03-29T04:05:07.425312","MEAN_MOTION":13.24410556,"ECCENTRICITY":0.0001945,"INCLINATION":86.4988,"RA_OF_ASC_NODE":40.4933,"ARG_OF_PERICENTER":71.879,"MEAN_ANOMALY":288.2556,"EPHEMERIS_TYPE":0,"CLASSIFICATION_TYPE":"U","NORAD_CAT_ID":65232,"ELEMENT_SET_NO":999,"REV_AT_EPOCH":2972,"BSTAR":0.00011245,"MEAN_MOTION_DOT":6.3e-7,"MEAN_MOTION_DDOT":0},{"OBJECT_NAME":"HULIANWANG DIGUI-73","OBJECT_ID":"2025-187A","EPOCH":"2026-03-29T03:30:28.996416","MEAN_MOTION":13.29322811,"ECCENTRICITY":8.84e-5,"INCLINATION":50.0037,"RA_OF_ASC_NODE":132.9402,"ARG_OF_PERICENTER":229.2575,"MEAN_ANOMALY":130.822,"EPHEMERIS_TYPE":0,"CLASSIFICATION_TYPE":"U","NORAD_CAT_ID":65305,"ELEMENT_SET_NO":999,"REV_AT_EPOCH":2905,"BSTAR":8.5723e-5,"MEAN_MOTION_DOT":-8.4e-7,"MEAN_MOTION_DDOT":0},{"OBJECT_NAME":"HULIANWANG DIGUI-74","OBJECT_ID":"2025-187B","EPOCH":"2026-03-29T04:54:38.860416","MEAN_MOTION":13.29323673,"ECCENTRICITY":8.97e-5,"INCLINATION":50.0079,"RA_OF_ASC_NODE":132.6572,"ARG_OF_PERICENTER":229.6573,"MEAN_ANOMALY":130.4221,"EPHEMERIS_TYPE":0,"CLASSIFICATION_TYPE":"U","NORAD_CAT_ID":65306,"ELEMENT_SET_NO":999,"REV_AT_EPOCH":2906,"BSTAR":7.2121e-5,"MEAN_MOTION_DOT":-9.1e-7,"MEAN_MOTION_DDOT":0},{"OBJECT_NAME":"HULIANWANG DIGUI-75","OBJECT_ID":"2025-187C","EPOCH":"2026-03-29T04:30:42.362784","MEAN_MOTION":13.29322379,"ECCENTRICITY":8.78e-5,"INCLINATION":50.0071,"RA_OF_ASC_NODE":132.5576,"ARG_OF_PERICENTER":229.674,"MEAN_ANOMALY":130.4056,"EPHEMERIS_TYPE":0,"CLASSIFICATION_TYPE":"U","NORAD_CAT_ID":65307,"ELEMENT_SET_NO":999,"REV_AT_EPOCH":2906,"BSTAR":8.34e-5,"MEAN_MOTION_DOT":-8.5e-7,"MEAN_MOTION_DDOT":0},{"OBJECT_NAME":"HULIANWANG DIGUI-76","OBJECT_ID":"2025-187D","EPOCH":"2026-03-29T04:06:55.114272","MEAN_MOTION":13.29323942,"ECCENTRICITY":8.85e-5,"INCLINATION":49.9995,"RA_OF_ASC_NODE":132.997,"ARG_OF_PERICENTER":225.8865,"MEAN_ANOMALY":134.1934,"EPHEMERIS_TYPE":0,"CLASSIFICATION_TYPE":"U","NORAD_CAT_ID":65308,"ELEMENT_SET_NO":999,"REV_AT_EPOCH":2905,"BSTAR":8.3526e-5,"MEAN_MOTION_DOT":-8.5e-7,"MEAN_MOTION_DDOT":0},{"OBJECT_NAME":"HULIANWANG DIGUI-77","OBJECT_ID":"2025-187E","EPOCH":"2026-03-29T03:54:40.560480","MEAN_MOTION":13.29322969,"ECCENTRICITY":0.0001081,"INCLINATION":50.003,"RA_OF_ASC_NODE":133.0131,"ARG_OF_PERICENTER":226.8112,"MEAN_ANOMALY":133.267,"EPHEMERIS_TYPE":0,"CLASSIFICATION_TYPE":"U","NORAD_CAT_ID":65309,"ELEMENT_SET_NO":999,"REV_AT_EPOCH":2905,"BSTAR":0.00011465,"MEAN_MOTION_DOT":-7.1e-7,"MEAN_MOTION_DDOT":0},{"OBJECT_NAME":"HULIANWANG DIGUI-78","OBJECT_ID":"2025-187F","EPOCH":"2026-03-29T04:42:48.222144","MEAN_MOTION":13.29322122,"ECCENTRICITY":8.78e-5,"INCLINATION":50.0095,"RA_OF_ASC_NODE":132.6433,"ARG_OF_PERICENTER":229.7568,"MEAN_ANOMALY":130.3227,"EPHEMERIS_TYPE":0,"CLASSIFICATION_TYPE":"U","NORAD_CAT_ID":65310,"ELEMENT_SET_NO":999,"REV_AT_EPOCH":2906,"BSTAR":7.6066e-5,"MEAN_MOTION_DOT":-8.9e-7,"MEAN_MOTION_DDOT":0},{"OBJECT_NAME":"HULIANWANG DIGUI-79","OBJECT_ID":"2025-187G","EPOCH":"2026-03-29T04:18:27.999936","MEAN_MOTION":13.29324055,"ECCENTRICITY":8.72e-5,"INCLINATION":50.0025,"RA_OF_ASC_NODE":133.09,"ARG_OF_PERICENTER":230.5505,"MEAN_ANOMALY":129.529,"EPHEMERIS_TYPE":0,"CLASSIFICATION_TYPE":"U","NORAD_CAT_ID":65311,"ELEMENT_SET_NO":999,"REV_AT_EPOCH":2905,"BSTAR":0.00010698,"MEAN_MOTION_DOT":-7.4e-7,"MEAN_MOTION_DDOT":0},{"OBJECT_NAME":"HULIANWANG DIGUI-80","OBJECT_ID":"2025-187H","EPOCH":"2026-03-29T03:42:36.213120","MEAN_MOTION":13.2932274,"ECCENTRICITY":0.0001059,"INCLINATION":50.0016,"RA_OF_ASC_NODE":132.9453,"ARG_OF_PERICENTER":225.7075,"MEAN_ANOMALY":134.371,"EPHEMERIS_TYPE":0,"CLASSIFICATION_TYPE":"U","NORAD_CAT_ID":65312,"ELEMENT_SET_NO":999,"REV_AT_EPOCH":2905,"BSTAR":9.3528e-5,"MEAN_MOTION_DOT":-8.1e-7,"MEAN_MOTION_DDOT":0}]
